{"spkid": "50574806", "covariance": {"data": [["3.008544221046283E-15", "-3.20947051939895E-15", "-8.9784250646495E-14", "-1.643288627304882E-12", "1.748339370220507E-12", "6.593960853318797E-14"], ["-3.20947051939895E-15", "4.988221375160879E-15", "2.101068112435954E-13", "3.004645014576776E-12", "-3.052247004822523E-12", "-9.910942904402846E-14"], ["-8.9784250646495E-14", "2.101068112435954E-13", "1.011190207855795E-10", "1.785608834845008E-10", "-8.402309021306714E-11", "7.197887454679262E-12"], ["-1.643288627304882E-12", "3.004645014576776E-12", "1.785608834845008E-10", "3.617743358801138E-8", "-3.588678922169986E-8", "-2.594253946589894E-9"], ["1.748339370220507E-12", "-3.052247004822523E-12", "-8.402309021306714E-11", "-3.588678922169986E-8", "3.571277348009681E-8", "2.592777557725692E-9"], ["6.593960853318797E-14", "-9.910942904402846E-14", "7.197887454679262E-12", "-2.594253946589894E-9", "2.592777557725692E-9", "2.182897553370157E-10"]], "elements": [{"units": null, "value": ".5149562015265032", "title": "eccentricity", "sigma": 5.48501980037108e-08, "name": "e", "label": "e"}, {"value": ".8761622699711937", "title": "perihelion distance", "units": "au", "sigma": 7.06273415552425e-08, "name": "q", "label": "q"}, {"label": "tp", "sigma": 1.00557953830405e-05, "name": "tp", "units": "TDB", "title": "time of perihelion passage", "value": "2455857.249991893966"}, {"label": "node", "units": "deg", "title": "longitude of the ascending node", "value": "19.18354078123692", "sigma": 0.000190203663445296, "name": "om"}, {"sigma": 0.000188978235466672, "name": "w", "units": "deg", "value": "26.67568687315899", "title": "argument of perihelion", "label": "peri"}, {"label": "i", "units": "deg", "title": "inclination", "value": "3.740403130702487", "sigma": 1.47746321557261e-05, "name": "i"}], "labels": ["e", "q", "tp", "node", "peri", "i"], "epoch": "2456005.5"}, "elements": [{"units": null, "value": ".5148824528173629", "title": "eccentricity", "name": "e", "sigma": "5.5475E-8", "label": "e"}, {"name": "a", "sigma": "1.32E-7", "units": "au", "value": "1.806553891036798", "title": "semi-major axis", "label": "a"}, {"value": ".8763909924730204", "title": "perihelion distance", "units": "au", "sigma": "6.9718E-8", "name": "q", "label": "q"}, {"units": "deg", "title": "inclination; angle with respect to x-y ecliptic plane", "value": "3.731946718604262", "sigma": "1.474E-5", "name": "i", "label": "i"}, {"label": "node", "name": "om", "sigma": ".00019062", "value": "19.03007383477418", "title": "longitude of the ascending node", "units": "deg"}, {"label": "peri", "name": "w", "sigma": ".00018936", "units": "deg", "title": "argument of perihelion", "value": "26.9189662186383"}, {"label": "M", "title": "mean anomaly", "value": "8.90253353666904", "units": "deg", "name": "ma", "sigma": ".00020883"}, {"units": "TDB", "title": "time of perihelion passage", "value": "2461178.567611675799", "sigma": ".00051206", "name": "tp", "label": "tp"}, {"label": "period", "sigma": "9.7204E-5", "name": "per", "units": "d", "value": "886.9003148587367", "title": "sidereal orbital period"}, {"units": "deg/d", "value": ".4059080755398535", "title": "mean motion", "sigma": "4.4487E-8", "name": "n", "label": "n"}, {"name": "ad", "sigma": "1.9996E-7", "units": "au", "value": "2.736716789600575", "title": "aphelion distance", "label": "Q"}], "epoch": "2461200.5"}